[{"OBJECT_NAME":"STARLINK-35188","OBJECT_ID":"2025-200C","EPOCH":"2026-03-09T17:54:31.856256","MEAN_MOTION":15.05649129,"ECCENTRICITY":6.943e-5,"INCLINATION":97.6033,"RA_OF_ASC_NODE":139.9184,"ARG_OF_PERICENTER":18.8489,"MEAN_ANOMALY":341.2763,"EPHEMERIS_TYPE":0,"CLASSIFICATION_TYPE":"U","NORAD_CAT_ID":65522,"ELEMENT_SET_NO":999,"REV_AT_EPOCH":2914,"BSTAR":0.00037426778,"MEAN_MOTION_DOT":5.343e-5,"MEAN_MOTION_DDOT":0},{"OBJECT_NAME":"OKEAN-3","OBJECT_ID":"1991-039A","EPOCH":"2026-03-09T19:29:17.530944","MEAN_MOTION":15.0480588,"ECCENTRICITY":0.00139411,"INCLINATION":82.519,"RA_OF_ASC_NODE":336.7249,"ARG_OF_PERICENTER":337.9296,"MEAN_ANOMALY":22.1329,"EPHEMERIS_TYPE":0,"CLASSIFICATION_TYPE":"U","NORAD_CAT_ID":21397,"ELEMENT_SET_NO":999,"REV_AT_EPOCH":86505,"BSTAR":0.00031884915,"MEAN_MOTION_DOT":4.536e-5,"MEAN_MOTION_DDOT":0}]
